{
  "type": "FeatureCollection",
  "name": "india_simplified",
  "crs": { "type": "name", "properties": { "name": "urn:ogc:def:crs:OGC:1.3:CRS84" } },
  "features": [
    {
      "type": "Feature",
      "properties": { "name": "India", "iso_a2": "IN", "note": "Coarse offline fallback outline; not for cartographic use. Replace with Survey of India / Bhuvan for submission." },
      "geometry": {
        "type": "Polygon",
        "coordinates": [
          [
            [77.84, 35.50],
            [78.91, 34.32],
            [79.21, 32.49],
            [80.21, 30.83],
            [81.40, 30.42],
            [83.27, 29.58],
            [85.25, 28.20],
            [88.13, 27.87],
            [88.73, 28.09],
            [89.74, 26.72],
            [91.70, 27.06],
            [92.50, 27.90],
            [94.56, 29.27],
            [96.40, 29.45],
            [97.40, 28.26],
            [96.42, 27.26],
            [95.12, 26.57],
            [93.41, 24.08],
            [94.11, 23.85],
            [93.33, 22.06],
            [92.67, 22.04],
            [91.16, 23.50],
            [91.47, 24.13],
            [89.06, 24.99],
            [88.18, 24.50],
            [88.56, 23.63],
            [88.88, 22.88],
            [89.03, 21.95],
            [87.03, 21.50],
            [85.06, 19.48],
            [83.19, 18.30],
            [82.19, 17.02],
            [80.30, 15.90],
            [80.03, 13.84],
            [80.27, 12.06],
            [79.86, 10.36],
            [79.34, 10.31],
            [78.89, 9.55],
            [79.19, 8.93],
            [78.28, 8.37],
            [77.55, 7.97],
            [76.59, 8.90],
            [75.75, 11.31],
            [74.86, 12.74],
            [74.62, 14.62],
            [73.53, 16.06],
            [73.12, 17.93],
            [72.82, 19.21],
            [72.63, 21.36],
            [72.63, 22.85],
            [69.16, 22.09],
            [68.18, 23.69],
            [68.84, 24.36],
            [71.04, 24.36],
            [70.84, 25.21],
            [70.28, 25.72],
            [70.59, 26.91],
            [71.78, 27.91],
            [72.82, 28.96],
            [73.45, 29.98],
            [74.42, 30.98],
            [74.51, 31.72],
            [75.26, 32.27],
            [74.65, 33.44],
            [74.18, 34.34],
            [75.76, 34.50],
            [76.87, 34.65],
            [77.84, 35.50]
          ]
        ]
      }
    }
  ]
}
